{"type": "FeatureCollection", "features": [ {"type": "Feature", "properties": {"norad_id": 62339, "name": "GPS BIII-7  (PRN 01)", "group": "gps-ops", "lat": -5.485161907753021, "lon": 165.23762754097794, "alt_km": 20213.767531922727, "timestamp": "2025-12-21T14:40:48.175762+00:00", "meta": {"OBJECT_NAME": "GPS BIII-7  (PRN 01)", "OBJECT_ID": "2024-242A", "EPOCH": "2025-12-18T08:46:28.895808", "MEAN_MOTION": 2.00568182, "ECCENTRICITY": 0.0012509, "INCLINATION": 54.922, "RA_OF_ASC_NODE": 341.5124, "ARG_OF_PERICENTER": 345.6877, "MEAN_ANOMALY": 17.1618, "EPHEMERIS_TYPE": 0, "CLASSIFICATION_TYPE": "U", "NORAD_CAT_ID": 62339, "ELEMENT_SET_NO": 999, "REV_AT_EPOCH": 763, "BSTAR": 0, "MEAN_MOTION_DOT": -8.5e-07, "MEAN_MOTION_DDOT": 0}, "tle": {"line1": "1 62339U 24242A   25352.36561222 -.00000085  00000+0  00000+0 0  9993", "line2": "2 62339  54.9220 341.5124 0012509 345.6877  17.1618  2.00568182  7636"}}, "geometry": {"type": "Point", "coordinates": [165.23762754097794, -5.485161907753021]}}, {"type": "Feature", "properties": {"norad_id": 64202, "name": "GPS BIII-8  (PRN 21)", "group": "gps-ops", "lat": 12.972368247341748, "lon": 47.54753979953125, "alt_km": 20175.03901027337, "timestamp": "2025-12-21T14:40:48.175774+00:00", "meta": {"OBJECT_NAME": "GPS BIII-8  (PRN 21)", "OBJECT_ID": "2025-116A", "EPOCH": "2025-12-21T05:27:12.746304", "MEAN_MOTION": 2.00557871, "ECCENTRICITY": 0.00058012, "INCLINATION": 55.1115, "RA_OF_ASC_NODE": 38.2986, "ARG_OF_PERICENTER": 309.9231, "MEAN_ANOMALY": 148.3902, "EPHEMERIS_TYPE": 0, "CLASSIFICATION_TYPE": "U", "NORAD_CAT_ID": 64202, "ELEMENT_SET_NO": 999, "REV_AT_EPOCH": 430, "BSTAR": 0, "MEAN_MOTION_DOT": -5.6e-07, "MEAN_MOTION_DDOT": 0}, "tle": {"line1": "1 64202U 25116A   25355.22723086 -.00000056  00000+0  00000+0 0  9999", "line2": "2 64202  55.1115  38.2986 0005801 309.9231 148.3902  2.00557871  4300"}}, "geometry": {"type": "Point", "coordinates": [47.54753979953125, 12.972368247341748]}}]}